[{"OBJECT_NAME":"GAOFEN-9 05","OBJECT_ID":"2020-058A","EPOCH":"2026-03-10T00:01:50.876256","MEAN_MOTION":15.30293976,"ECCENTRICITY":0.0010522,"INCLINATION":97.2228,"RA_OF_ASC_NODE":111.963,"ARG_OF_PERICENTER":91.0204,"MEAN_ANOMALY":269.2242,"EPHEMERIS_TYPE":0,"CLASSIFICATION_TYPE":"U","NORAD_CAT_ID":46232,"ELEMENT_SET_NO":999,"REV_AT_EPOCH":30843,"BSTAR":0.00025120304,"MEAN_MOTION_DOT":7.299e-5,"MEAN_MOTION_DDOT":0},{"OBJECT_NAME":"STARLINK-31755","OBJECT_ID":"2024-080G","EPOCH":"2026-03-09T06:32:13.206048","MEAN_MOTION":15.27570554,"ECCENTRICITY":0.00010219,"INCLINATION":43.0029,"RA_OF_ASC_NODE":44.1685,"ARG_OF_PERICENTER":284.0314,"MEAN_ANOMALY":76.0424,"EPHEMERIS_TYPE":0,"CLASSIFICATION_TYPE":"U","NORAD_CAT_ID":59607,"ELEMENT_SET_NO":999,"REV_AT_EPOCH":10442,"BSTAR":4.3761129e-5,"MEAN_MOTION_DOT":9.42e-6,"MEAN_MOTION_DDOT":0}]
